ONEWEB-0156             
1 48052U 21025L   25128.31041822 -.00000152  00000+0 -45234-3 0  9998
2 48052  87.8996  40.6682 0001995  82.1188 278.0167 13.13469397200432
ONEWEB-0161             
1 48053U 21025M   25127.98031896  .00000301  00000+0  78934-3 0  9998
2 48053  87.8997  40.7503 0001956  84.6753 275.4599 13.13469792200315
ONEWEB-0158             
1 48054U 21025N   25128.32057678 -.00000250  00000+0 -71955-3 0  9995
2 48054  87.8994  40.6634 0002048  77.3006 282.8352 13.13470070200488
ONEWEB-0157             
1 48055U 21025P   25128.04127575  .00000186  00000+0  47443-3 0  9990
2 48055  87.8991  40.7306 0002044  92.9263 267.2100 13.13470185200392
ONEWEB-0162             
1 48056U 21025Q   25128.24595868 -.00000277  00000+0 -79227-3 0  9995
2 48056  87.8993  40.6875 0001949  80.0017 280.1332 13.13469340200362
ONEWEB-0155             
1 48057U 21025R   25128.25286399 -.00000152  00000+0 -45138-3 0  9999
2 48057  87.8991  40.6946 0001739  84.5510 275.5818 13.13470373200538
ONEWEB-0149             
1 48058U 21025S   25128.19870503  .00000348  00000+0  91674-3 0  9990
2 48058  87.8990  40.7008 0002110  78.2606 281.8760 13.13469765200335
ONEWEB-0148             
1 48059U 21025T   25128.16145064 -.00000242  00000+0 -69689-3 0  9991
2 48059  87.8995  40.7290 0002538  83.9218 276.2200 13.13470033200449
ONEWEB-0160             
1 48060U 21025U   25128.25456111 -.00000087  00000+0 -27224-3 0  9997
2 48060  87.8995  40.7077 0001814  52.9774 307.1521 13.13470252200402
ONEWEB-0163             
1 48061U 21025V   25128.31549710 -.00000235  00000+0 -67833-3 0  9998
2 48061  87.8993  40.6785 0001945  87.1184 273.0168 13.13469891200546
ONEWEB-0159             
1 48062U 21025W   25128.30704232 -.00000099  00000+0 -30676-3 0  9993
2 48062  87.8994  40.6618 0002054  85.1485 274.9878 13.13469209200458
ONEWEB-0164             
1 48063U 21025X   25127.98370670  .00000337  00000+0  88867-3 0  9990
2 48063  87.8991  40.7367 0001876  78.1482 281.9857 13.13468852200399
ONEWEB-0167             
1 48064U 21025Y   25128.16397757 -.00000284  00000+0 -81388-3 0  9991
2 48064  87.9003  40.7249 0001458 103.2321 256.8971 13.13468070200404
ONEWEB-0166             
1 48065U 21025Z   25128.26302202  .00000112  00000+0  27230-3 0  9998
2 48065  87.8987  40.6679 0002063  80.7283 279.4080 13.13469942200490
ONEWEB-0151             
1 48066U 21025AA  25128.26471451  .00000133  00000+0  32967-3 0  9998
2 48066  87.8990  40.6890 0001764  81.3937 278.7392 13.13469790200444
ONEWEB-0170             
1 48067U 21025AB  25128.19700315  .00000287  00000+0  75163-3 0  9990
2 48067  87.8993  40.7074 0001446  69.8982 290.2302 13.13469200200380
ONEWEB-0168             
1 48068U 21025AC  25128.25794227 -.00000037  00000+0 -13749-3 0  9990
2 48068  87.8995  40.6742 0001885  81.0777 279.0566 13.13470202200403
ONEWEB-0173             
1 48069U 21025AD  25127.79239649 -.00000213  00000+0 -61864-3 0  9998
2 48069  87.8995  40.7755 0001807  94.0476 266.0859 13.13467193200588
ONEWEB-0171             
1 48070U 21025AE  25127.98202805  .00000362  00000+0  95748-3 0  9996
2 48070  87.8996  40.7752 0001779  80.0403 280.0927 13.13470403200424
ONEWEB-0172             
1 48071U 21025AF  25128.03787468  .00000147  00000+0  36741-3 0  9996
2 48071  87.8994  40.7303 0001766  83.6034 276.5296 13.13469665201327
ONEWEB-0174             
1 48072U 21025AG  25128.24778322 -.00000227  00000+0 -65583-3 0  9996
2 48072  87.8996  40.7020 0002003  79.8233 280.3122 13.13470234200671
ONEWEB-0175             
1 48073U 21025AH  25128.20209970  .00000367  00000+0  96978-3 0  9996
2 48073  87.8988  40.6813 0001536  78.6316 281.4986 13.13469910200322
ONEWEB-0177             
1 48074U 21025AJ  25127.98539520  .00000247  00000+0  64089-3 0  9993
2 48074  87.8992  40.7372 0001961  86.9914 273.1440 13.13467900200484
ONEWEB-0178             
1 48075U 21025AK  25128.15651106 -.00000175  00000+0 -51299-3 0  9990
2 48075  87.9001  40.7437 0001651  87.0965 273.0353 13.13470316200558
ONEWEB-0108             
1 48076U 21025AL  25127.81102709  .00001198  00000+0  32451-2 0  9995
2 48076  87.8989  40.7672 0002038  74.0403 286.0951 13.13477550200439
ONEWEB-0169             
1 48077U 21025AM  25128.30026339  .00000106  00000+0  25555-3 0  9991
2 48077  87.8993  40.6886 0002004  74.2614 285.8736 13.13470039200398
ONEWEB-0176             
1 48210U 21031A   25128.23236944 -.00000141  00000+0 -41493-3 0  9994
2 48210  87.9077  10.2536 0001779  80.5785 279.5546 13.14502740196404
ONEWEB-0184             
1 48211U 21031B   25128.20541452  .00000226  00000+0  57611-3 0  9996
2 48211  87.9072  10.2311 0000989 100.8143 259.3098 13.14503893195088
ONEWEB-0179             
1 48212U 21031C   25127.71939087  .00000044  00000+0  85371-4 0  9990
2 48212  87.9072  10.3429 0001884  83.7340 276.4005 13.14503979195064
ONEWEB-0180             
1 48213U 21031D   25128.20859134  .00000190  00000+0  47910-3 0  9998
2 48213  87.9073  10.2348 0001709  88.6537 271.4788 13.14501857195014
ONEWEB-0218             
1 48214U 21031E   25128.23078667 -.00000114  00000+0 -34219-3 0  9992
2 48214  87.9075  10.2312 0001244 112.9416 247.1845 13.14502189195179
ONEWEB-0209             
1 48215U 21031F   25128.21968550  .00000010  00000+0 -64459-5 0  9995
2 48215  87.9077  10.2751 0001921  85.0830 275.0519 13.14503004195176
ONEWEB-0198             
1 48216U 21031G   25128.20383559  .00000234  00000+0  59683-3 0  9993
2 48216  87.9073  10.2807 0001675  94.0513 266.0808 13.14501922195267
ONEWEB-0189             
1 48217U 21031H   25127.75980777  .00000023  00000+0  27816-4 0  9998
2 48217  87.9075  10.3427 0001710  95.3005 264.8320 13.14502668194968
ONEWEB-0196             
1 48218U 21031J   25128.11819946  .00000574  00000+0  15134-2 0  9998
2 48218  87.9076  10.2821 0001794  83.7334 276.4000 13.14505102195001
ONEWEB-0183             
1 48219U 21031K   25127.94058158 -.00000110  00000+0 -33044-3 0  9998
2 48219  87.9073  10.3302 0001989  81.0843 279.0512 13.14504199195086
ONEWEB-0185             
1 48220U 21031L   25128.19510452  .00000239  00000+0  60934-3 0  9996
2 48220  87.9070  10.2484 0001979  87.8492 272.2864 13.14503228195041
ONEWEB-0187             
1 48221U 21031M   25127.94679411 -.00000071  00000+0 -22642-3 0  9990
2 48221  87.9072  10.3402 0001990  91.0692 269.0666 13.14501369195023
ONEWEB-0192             
1 48222U 21031N   25128.22127309  .00000009  00000+0 -10575-4 0  9990
2 48222  87.9078  10.2788 0001730  83.6090 276.5237 13.14502005194986
ONEWEB-0219             
1 48223U 21031P   25128.20065526 -.00002538  00000+0 -68803-2 0  9996
2 48223  87.9078  10.2562 0001946  90.3923 269.7430 13.14515530195185
ONEWEB-0202             
1 48224U 21031Q   25127.95328228  .00000051  00000+0  10233-3 0  9990
2 48224  87.9072  10.3203 0001486 108.0532 252.0760 13.14502147195120
ONEWEB-0204             
1 48225U 21031R   25128.21572180  .00000098  00000+0  23009-3 0  9995
2 48225  87.9054  10.2779 0002075  77.8066 282.3296 13.14502085195062
ONEWEB-0205             
1 48226U 21031S   25128.19114143  .00000297  00000+0  76674-3 0  9991
2 48226  87.9074  10.2567 0001960  87.3737 272.7617 13.14501671195074
ONEWEB-0206             
1 48227U 21031T   25127.70746955 -.00000103  00000+0 -31128-3 0  9993
2 48227  87.9071  10.3340 0001901  82.9312 277.2033 13.14504890194951
ONEWEB-0182             
1 48228U 21031U   25127.70271922 -.00000234  00000+0 -66567-3 0  9991
2 48228  87.9076  10.3760 0001919  77.0958 283.0385 13.14501550195162
ONEWEB-0186             
1 48229U 21031V   25127.94217338 -.00000082  00000+0 -25580-3 0  9990
2 48229  87.9073  10.2900 0001840  84.5854 275.5486 13.14502231195149
ONEWEB-0181             
1 48230U 21031W   25127.69161863 -.00000157  00000+0 -45796-3 0  9999
2 48230  87.9078  10.4114 0001810  89.4237 270.7100 13.14502587194964
ONEWEB-0188             
1 48231U 21031X   25128.18638929  .00000195  00000+0  49083-3 0  9990
2 48231  87.9073  10.3051 0001860  83.0373 277.0968 13.14502366194939
ONEWEB-0220             
1 48232U 21031Y   25128.22602697 -.00000088  00000+0 -27238-3 0  9990
2 48232  87.9070  10.2423 0002050  86.9707 273.1658 13.14501248195206
ONEWEB-0165             
1 48233U 21031Z   25127.95011119  .00000069  00000+0  15073-3 0  9994
2 48233  87.9073  10.3355 0001880  87.9356 272.1989 13.14502748195129
ONEWEB-0199             
1 48234U 21031AA  25128.23871099 -.00000104  00000+0 -31577-3 0  9997
2 48234  87.9074  10.2430 0001777  77.2286 282.9042 13.14503740195068
ONEWEB-0203             
1 48235U 21031AB  25127.69638971 -.00000210  00000+0 -60011-3 0  9990
2 48235  87.9076  10.3532 0001507  82.2217 277.9084 13.14504000195000
ONEWEB-0197             
1 48236U 21031AC  25128.20461457  .00000183  00000+0  45819-3 0  9998
2 48236  87.9064  10.2615 0002110  79.2954 280.8413 13.14504583194985
ONEWEB-0194             
1 48237U 21031AD  25128.10710039  .00000141  00000+0  34658-3 0  9994
2 48237  87.9074  10.2788 0001653  75.7420 284.3893 13.14501651195141
ONEWEB-0193             
1 48238U 21031AE  25128.19907810  .00000203  00000+0  51216-3 0  9997
2 48238  87.9075  10.2684 0001682  84.5279 275.6042 13.14502371195105
ONEWEB-0191             
1 48239U 21031AF  25128.21017360  .00000103  00000+0  24209-3 0  9994
2 48239  87.9073  10.2398 0001559  79.6691 280.4614 13.14501870194967
ONEWEB-0195             
1 48240U 21031AG  25128.18718610  .00000219  00000+0  55663-3 0  9994
2 48240  87.9070  10.2425 0001740  95.3810 264.7518 13.14505352194942
ONEWEB-0201             
1 48241U 21031AH  25127.94706692 -.00000072  00000+0 -22972-3 0  9991
2 48241  87.9074  10.3350 0002008  86.5852 273.5507 13.14502613195147
ONEWEB-0207             
1 48242U 21031AJ  25128.23157713 -.00000149  00000+0 -43598-3 0  9991
2 48242  87.9074  10.2405 0002070  83.1532 276.9833 13.14502993195099
